{"type": "FeatureCollection", "features": [ {"type": "Feature", "properties": {"norad_id": 28659, "name": "DIRECTV 8", "group": "intelsat", "lat": 0.030940420835478148, "lon": 149.60474331075457, "alt_km": 35794.98039825307, "timestamp": "2025-12-25T11:37:44.089248+00:00", "meta": {"OBJECT_NAME": "DIRECTV 8", "OBJECT_ID": "2005-019A", "EPOCH": "2025-12-24T22:48:22.794912", "MEAN_MOTION": 1.00271692, "ECCENTRICITY": 0.0003031, "INCLINATION": 0.0176, "RA_OF_ASC_NODE": 32.0086, "ARG_OF_PERICENTER": 251.576, "MEAN_ANOMALY": 33.1866, "EPHEMERIS_TYPE": 0, "CLASSIFICATION_TYPE": "U", "NORAD_CAT_ID": 28659, "ELEMENT_SET_NO": 999, "REV_AT_EPOCH": 7532, "BSTAR": 0, "MEAN_MOTION_DOT": 2.2e-07, "MEAN_MOTION_DDOT": 0}, "tle": {"line1": "1 28659U 05019A   25358.95026383  .00000022  00000+0  00000+0 0  9996", "line2": "2 28659   0.0176  32.0086 0003031 251.5760  33.1866  1.00271692 75320"}}, "geometry": {"type": "Point", "coordinates": [149.60474331075457, 0.030940420835478148]}}, {"type": "Feature", "properties": {"norad_id": 28702, "name": "GALAXY 28 (G-28)", "group": "intelsat", "lat": 2.755249540804923, "lon": -173.53396766298619, "alt_km": 35685.321572871646, "timestamp": "2025-12-25T11:37:44.089259+00:00", "meta": {"OBJECT_NAME": "GALAXY 28 (G-28)", "OBJECT_ID": "2005-022A", "EPOCH": "2025-12-25T02:57:07.320096", "MEAN_MOTION": 1.00600036, "ECCENTRICITY": 0.0003529, "INCLINATION": 2.8515, "RA_OF_ASC_NODE": 81.1374, "ARG_OF_PERICENTER": 159.4609, "MEAN_ANOMALY": 174.9491, "EPHEMERIS_TYPE": 0, "CLASSIFICATION_TYPE": "U", "NORAD_CAT_ID": 28702, "ELEMENT_SET_NO": 999, "REV_AT_EPOCH": 5022, "BSTAR": 0, "MEAN_MOTION_DOT": -2.28e-06, "MEAN_MOTION_DDOT": 0}, "tle": {"line1": "1 28702U 05022A   25359.12300139 -.00000228  00000+0  00000+0 0  9992", "line2": "2 28702   2.8515  81.1374 0003529 159.4609 174.9491  1.00600036 50229"}}, "geometry": {"type": "Point", "coordinates": [-173.53396766298619, 2.755249540804923]}}, {"type": "Feature", "properties": {"norad_id": 29236, "name": "GALAXY 16 (G-16)", "group": "intelsat", "lat": 0.004088783980573842, "lon": 169.63345015756119, "alt_km": 35789.53481654808, "timestamp": "2025-12-25T11:37:44.089271+00:00", "meta": {"OBJECT_NAME": "GALAXY 16 (G-16)", "OBJECT_ID": "2006-023A", "EPOCH": "2025-12-24T22:53:59.758368", "MEAN_MOTION": 1.00271582, "ECCENTRICITY": 0.0002662, "INCLINATION": 0.0298, "RA_OF_ASC_NODE": 185.906, "ARG_OF_PERICENTER": 91.2013, "MEAN_ANOMALY": 61.1049, "EPHEMERIS_TYPE": 0, "CLASSIFICATION_TYPE": "U", "NORAD_CAT_ID": 29236, "ELEMENT_SET_NO": 999, "REV_AT_EPOCH": 7122, "BSTAR": 0, "MEAN_MOTION_DOT": -1.06e-06, "MEAN_MOTION_DDOT": 0}, "tle": {"line1": "1 29236U 06023A   25358.95416387 -.00000106  00000+0  00000+0 0  9995", "line2": "2 29236   0.0298 185.9060 0002662  91.2013  61.1049  1.00271582 71223"}}, "geometry": {"type": "Point", "coordinates": [169.63345015756119, 0.004088783980573842]}}, {"type": "Feature", "properties": {"norad_id": 29494, "name": "DIRECTV 9S", "group": "intelsat", "lat": 1.971381156858449, "lon": 167.43443693283444, "alt_km": 35790.52001422403, "timestamp": "2025-12-25T11:37:44.089283+00:00", "meta": {"OBJECT_NAME": "DIRECTV 9S", "OBJECT_ID": "2006-043A", "EPOCH": "2025-12-25T03:27:24.577344", "MEAN_MOTION": 1.00271749, "ECCENTRICITY": 0.0002996, "INCLINATION": 1.9703, "RA_OF_ASC_NODE": 83.0805, "ARG_OF_PERICENTER": 196.0235, "MEAN_ANOMALY": 125.4535, "EPHEMERIS_TYPE": 0, "CLASSIFICATION_TYPE": "U", "NORAD_CAT_ID": 29494, "ELEMENT_SET_NO": 999, "REV_AT_EPOCH": 4963, "BSTAR": 0, "MEAN_MOTION_DOT": -9.3e-07, "MEAN_MOTION_DDOT": 0}, "tle": {"line1": "1 29494U 06043A   25359.14403446 -.00000093  00000+0  00000+0 0  9992", "line2": "2 29494   1.9703  83.0805 0002996 196.0235 125.4535  1.00271749 49634"}}, "geometry": {"type": "Point", "coordinates": [167.43443693283444, 1.971381156858449]}}, {"type": "Feature", "properties": {"norad_id": 31307, "name": "GALAXY 17 (G-17)", "group": "intelsat", "lat": 2.4843258561940003, "lon": -176.36563191134582, "alt_km": 35778.313392484146, "timestamp": "2025-12-25T11:37:44.089295+00:00", "meta": {"OBJECT_NAME": "GALAXY 17 (G-17)", "OBJECT_ID": "2007-016B", "EPOCH": "2025-12-25T03:12:43.293024", "MEAN_MOTION": 1.00272001, "ECCENTRICITY": 0.00056, "INCLINATION": 2.5292, "RA_OF_ASC_NODE": 82.144, "ARG_OF_PERICENTER": 173.1057, "MEAN_ANOMALY": 161.8394, "EPHEMERIS_TYPE": 0, "CLASSIFICATION_TYPE": "U", "NORAD_CAT_ID": 31307, "ELEMENT_SET_NO": 999, "REV_AT_EPOCH": 6805, "BSTAR": 0, "MEAN_MOTION_DOT": -1.86e-06, "MEAN_MOTION_DDOT": 0}, "tle": {"line1": "1 31307U 07016B   25359.13383441 -.00000186  00000+0  00000+0 0  9993", "line2": "2 31307   2.5292  82.1440 0005600 173.1057 161.8394  1.00272001 68054"}}, "geometry": {"type": "Point", "coordinates": [-176.36563191134582, 2.4843258561940003]}}, {"type": "Feature", "properties": {"norad_id": 31862, "name": "DIRECTV 10", "group": "intelsat", "lat": 9.756115681781922e-05, "lon": 165.88419613572768, "alt_km": 35785.19302222343, "timestamp": "2025-12-25T11:37:44.089306+00:00", "meta": {"OBJECT_NAME": "DIRECTV 10", "OBJECT_ID": "2007-032A", "EPOCH": "2025-12-24T14:19:19.046208", "MEAN_MOTION": 1.00273609, "ECCENTRICITY": 2.725e-05, "INCLINATION": 0.0207, "RA_OF_ASC_NODE": 182.1136, "ARG_OF_PERICENTER": 53.7746, "MEAN_ANOMALY": 329.5202, "EPHEMERIS_TYPE": 0, "CLASSIFICATION_TYPE": "U", "NORAD_CAT_ID": 31862, "ELEMENT_SET_NO": 999, "REV_AT_EPOCH": 4384, "BSTAR": 0, "MEAN_MOTION_DOT": -8.2e-07, "MEAN_MOTION_DDOT": 0}, "tle": {"line1": "1 31862U 07032A   25358.59674822 -.00000082  00000+0  00000+0 0  9997", "line2": "2 31862   0.0207 182.1136 0000272  53.7746 329.5202  1.00273609 43846"}}, "geometry": {"type": "Point", "coordinates": [165.88419613572768, 9.756115681781922e-05]}}, {"type": "Feature", "properties": {"norad_id": 32253, "name": "INTELSAT 11 (IS-11)", "group": "intelsat", "lat": -0.1178349869737212, "lon": 78.34547788346792, "alt_km": 36167.68708765833, "timestamp": "2025-12-25T11:37:44.089318+00:00", "meta": {"OBJECT_NAME": "INTELSAT 11 (IS-11)", "OBJECT_ID": "2007-044B", "EPOCH": "2025-12-24T20:46:04.510272", "MEAN_MOTION": 0.99053047, "ECCENTRICITY": 0.0008602, "INCLINATION": 3.1098, "RA_OF_ASC_NODE": 80.8414, "ARG_OF_PERICENTER": 171.0045, "MEAN_ANOMALY": 325.7039, "EPHEMERIS_TYPE": 0, "CLASSIFICATION_TYPE": "U", "NORAD_CAT_ID": 32253, "ELEMENT_SET_NO": 999, "REV_AT_EPOCH": 6672, "BSTAR": 0, "MEAN_MOTION_DOT": -1.82e-06, "MEAN_MOTION_DDOT": 0}, "tle": {"line1": "1 32253U 07044B   25358.86532998 -.00000182  00000+0  00000+0 0  9993", "line2": "2 32253   3.1098  80.8414 0008602 171.0045 325.7039  0.99053047 66724"}}, "geometry": {"type": "Point", "coordinates": [78.34547788346792, -0.1178349869737212]}}, {"type": "Feature", "properties": {"norad_id": 32388, "name": "HORIZONS-2", "group": "intelsat", "lat": 1.9966994680678223, "lon": -165.16855703547526, "alt_km": 35784.59524655669, "timestamp": "2025-12-25T11:37:44.089330+00:00", "meta": {"OBJECT_NAME": "HORIZONS-2", "OBJECT_ID": "2007-063B", "EPOCH": "2025-12-25T04:30:58.751136", "MEAN_MOTION": 1.00269574, "ECCENTRICITY": 0.0004775, "INCLINATION": 2.152, "RA_OF_ASC_NODE": 82.826, "ARG_OF_PERICENTER": 196.7132, "MEAN_ANOMALY": 168.3583, "EPHEMERIS_TYPE": 0, "CLASSIFICATION_TYPE": "U", "NORAD_CAT_ID": 32388, "ELEMENT_SET_NO": 999, "REV_AT_EPOCH": 6607, "BSTAR": 0, "MEAN_MOTION_DOT": -2.33e-06, "MEAN_MOTION_DDOT": 0}, "tle": {"line1": "1 32388U 07063B   25359.18817999 -.00000233  00000+0  00000+0 0  9993", "line2": "2 32388   2.1520  82.8260 0004775 196.7132 168.3583  1.00269574 66071"}}, "geometry": {"type": "Point", "coordinates": [-165.16855703547526, 1.9966994680678223]}}, {"type": "Feature", "properties": {"norad_id": 32729, "name": "DIRECTV 11", "group": "intelsat", "lat": -0.021848148713189925, "lon": 169.44061441999946, "alt_km": 35786.00339185316, "timestamp": "2025-12-25T11:37:44.089341+00:00", "meta": {"OBJECT_NAME": "DIRECTV 11", "OBJECT_ID": "2008-013A", "EPOCH": "2025-12-24T22:53:59.758368", "MEAN_MOTION": 1.00260442, "ECCENTRICITY": 0.0001047, "INCLINATION": 0.0475, "RA_OF_ASC_NODE": 199.7105, "ARG_OF_PERICENTER": 11.4593, "MEAN_ANOMALY": 126.8496, "EPHEMERIS_TYPE": 0, "CLASSIFICATION_TYPE": "U", "NORAD_CAT_ID": 32729, "ELEMENT_SET_NO": 999, "REV_AT_EPOCH": 4384, "BSTAR": 0, "MEAN_MOTION_DOT": -1.03e-06, "MEAN_MOTION_DDOT": 0}, "tle": {"line1": "1 32729U 08013A   25358.95416387 -.00000103  00000+0  00000+0 0  9994", "line2": "2 32729   0.0475 199.7105 0001047  11.4593 126.8496  1.00260442 43842"}}, "geometry": {"type": "Point", "coordinates": [169.44061441999946, -0.021848148713189925]}}, {"type": "Feature", "properties": {"norad_id": 32951, "name": "GALAXY 18 (G-18)", "group": "intelsat", "lat": 0.008854376911107098, "lon": 145.63976293994847, "alt_km": 35794.89007016757, "timestamp": "2025-12-25T11:37:44.089353+00:00", "meta": {"OBJECT_NAME": "GALAXY 18 (G-18)", "OBJECT_ID": "2008-024A", "EPOCH": "2025-12-25T02:12:40.725792", "MEAN_MOTION": 1.00272072, "ECCENTRICITY": 0.0003031, "INCLINATION": 0.017, "RA_OF_ASC_NODE": 323.4442, "ARG_OF_PERICENTER": 316.2082, "MEAN_ANOMALY": 84.3679, "EPHEMERIS_TYPE": 0, "CLASSIFICATION_TYPE": "U", "NORAD_CAT_ID": 32951, "ELEMENT_SET_NO": 999, "REV_AT_EPOCH": 4410, "BSTAR": 0, "MEAN_MOTION_DOT": 4.6e-07, "MEAN_MOTION_DDOT": 0}, "tle": {"line1": "1 32951U 08024A   25359.09213803  .00000046  00000+0  00000+0 0  9992", "line2": "2 32951   0.0170 323.4442 0003031 316.2082  84.3679  1.00272072 44108"}}, "geometry": {"type": "Point", "coordinates": [145.63976293994847, 0.008854376911107098]}}]}